PROGRESS-MS 32          
1 65586U 25204A   25305.52050362  .00011974  00000+0  21987-3 0  9992
2 65586  51.6344 346.5423 0004933   5.4437 354.6605 15.49679820   273
CYGNUS NG-23            
1 65616U 25208A   25305.52050362  .00011974  00000+0  21987-3 0  9990
2 65616  51.6344 346.5423 0004933   5.4437 354.6605 15.49679820   222
DRAGONFLY               
1 65729U 98067XH  25305.30218216  .00089535  00000+0  10959-2 0  9992
2 65729  51.6321 345.8388 0003433  62.4125 297.7216 15.59621577  6672
1998-067XJ              
1 65730U 98067XJ  25305.52865361  .00230008  00000+0  19803-2 0  9997
2 65730  51.6289 343.5953 0010888  42.7894 317.3948 15.67967054  6725
1998-067XK              
1 65731U 98067XK  25305.51878162  .00065138  00000+0  86250-3 0  9991
2 65731  51.6333 345.0362 0004883  42.0325 318.1041 15.57667194  6709
RSP-03                  
1 65732U 98067XL  25305.50685713  .00075093  00000+0  95658-3 0  9992
2 65732  51.6322 344.9555 0005655  43.0184 317.1250 15.58632481  6716
GHS-01                  
1 65733U 98067XM  25305.48616971  .00096430  00000+0  11465-2 0  9991
2 65733  51.6330 344.8180 0004043  60.8132 299.3265 15.60348811  6710
YOTSUBA-KULOVER         
1 65941U 98067XN  25305.55120278  .00048767  00000+0  76336-3 0  9999
2 65941  51.6329 345.9990 0002613 350.0726  10.0213 15.53246603  3440
BOTAN                   
1 65942U 98067XP  25305.54523315  .00066684  00000+0  10070-2 0  9998
2 65942  51.6331 345.9591 0004625   5.6465 354.4577 15.54095782  3448
E-KAGAKU-1              
1 65943U 98067XQ  25305.48643289  .00048933  00000+0  76576-3 0  9996
2 65943  51.6344 346.3156 0004407 355.0444   5.0502 15.53246328  3431
HRC MONOBLOCK CAMERA    
1 66052U 98067XR  25305.51429127  .00030784  00000+0  53318-3 0  9999
2 66052  51.6330 346.5013 0004450  14.1226 345.9887 15.50628172  2430
HTV-X1                  
1 66174U 25241A   25305.52050362  .00011974  00000+0  21987-3 0  9997
2 66174  51.6344 346.5423 0004933   5.4437 354.6605 15.49679820   985
