CCSDS_OMM_VERS = 2.0
CREATION_DATE  = 
ORIGINATOR     = 

OBJECT_NAME    = PROGRESS-MS 32
OBJECT_ID      = 2025-204A
CENTER_NAME    = EARTH
REF_FRAME      = TEME
TIME_SYSTEM    = UTC
MEAN_ELEMENT_THEORY = SGP/SGP4

EPOCH          = 2025-11-01T12:29:31.512768
MEAN_MOTION    = 15.49679820
ECCENTRICITY   = .00049334
INCLINATION    = 51.6344
RA_OF_ASC_NODE = 346.5423
ARG_OF_PERICENTER = 5.4437
MEAN_ANOMALY   = 354.6605

EPHEMERIS_TYPE = 0
CLASSIFICATION_TYPE = U
NORAD_CAT_ID   = 65586
ELEMENT_SET_NO = 999
REV_AT_EPOCH   = 27
BSTAR          = .21987154E-3
MEAN_MOTION_DOT = .11974E-3
MEAN_MOTION_DDOT = 0

CCSDS_OMM_VERS = 2.0
CREATION_DATE  = 
ORIGINATOR     = 

OBJECT_NAME    = CYGNUS NG-23
OBJECT_ID      = 2025-208A
CENTER_NAME    = EARTH
REF_FRAME      = TEME
TIME_SYSTEM    = UTC
MEAN_ELEMENT_THEORY = SGP/SGP4

EPOCH          = 2025-11-01T12:29:31.512768
MEAN_MOTION    = 15.49679820
ECCENTRICITY   = .00049334
INCLINATION    = 51.6344
RA_OF_ASC_NODE = 346.5423
ARG_OF_PERICENTER = 5.4437
MEAN_ANOMALY   = 354.6605

EPHEMERIS_TYPE = 0
CLASSIFICATION_TYPE = U
NORAD_CAT_ID   = 65616
ELEMENT_SET_NO = 999
REV_AT_EPOCH   = 22
BSTAR          = .21987154E-3
MEAN_MOTION_DOT = .11974E-3
MEAN_MOTION_DDOT = 0

CCSDS_OMM_VERS = 2.0
CREATION_DATE  = 
ORIGINATOR     = 

OBJECT_NAME    = DRAGONFLY
OBJECT_ID      = 1998-067XH
CENTER_NAME    = EARTH
REF_FRAME      = TEME
TIME_SYSTEM    = UTC
MEAN_ELEMENT_THEORY = SGP/SGP4

EPOCH          = 2025-11-01T07:15:08.538624
MEAN_MOTION    = 15.59621577
ECCENTRICITY   = .00034337
INCLINATION    = 51.6321
RA_OF_ASC_NODE = 345.8388
ARG_OF_PERICENTER = 62.4125
MEAN_ANOMALY   = 297.7216

EPHEMERIS_TYPE = 0
CLASSIFICATION_TYPE = U
NORAD_CAT_ID   = 65729
ELEMENT_SET_NO = 999
REV_AT_EPOCH   = 667
BSTAR          = .10959097E-2
MEAN_MOTION_DOT = .89535E-3
MEAN_MOTION_DDOT = 0

CCSDS_OMM_VERS = 2.0
CREATION_DATE  = 
ORIGINATOR     = 

OBJECT_NAME    = 1998-067XJ
OBJECT_ID      = 1998-067XJ
CENTER_NAME    = EARTH
REF_FRAME      = TEME
TIME_SYSTEM    = UTC
MEAN_ELEMENT_THEORY = SGP/SGP4

EPOCH          = 2025-11-01T12:41:15.671904
MEAN_MOTION    = 15.67967054
ECCENTRICITY   = .00108882
INCLINATION    = 51.6289
RA_OF_ASC_NODE = 343.5953
ARG_OF_PERICENTER = 42.7894
MEAN_ANOMALY   = 317.3948

EPHEMERIS_TYPE = 0
CLASSIFICATION_TYPE = U
NORAD_CAT_ID   = 65730
ELEMENT_SET_NO = 999
REV_AT_EPOCH   = 672
BSTAR          = .19803363E-2
MEAN_MOTION_DOT = .230008E-2
MEAN_MOTION_DDOT = 0

CCSDS_OMM_VERS = 2.0
CREATION_DATE  = 
ORIGINATOR     = 

OBJECT_NAME    = 1998-067XK
OBJECT_ID      = 1998-067XK
CENTER_NAME    = EARTH
REF_FRAME      = TEME
TIME_SYSTEM    = UTC
MEAN_ELEMENT_THEORY = SGP/SGP4

EPOCH          = 2025-11-01T12:27:02.731968
MEAN_MOTION    = 15.57667194
ECCENTRICITY   = .00048834
INCLINATION    = 51.6333
RA_OF_ASC_NODE = 345.0362
ARG_OF_PERICENTER = 42.0325
MEAN_ANOMALY   = 318.1041

EPHEMERIS_TYPE = 0
CLASSIFICATION_TYPE = U
NORAD_CAT_ID   = 65731
ELEMENT_SET_NO = 999
REV_AT_EPOCH   = 670
BSTAR          = .8625023E-3
MEAN_MOTION_DOT = .65138E-3
MEAN_MOTION_DDOT = 0

CCSDS_OMM_VERS = 2.0
CREATION_DATE  = 
ORIGINATOR     = 

OBJECT_NAME    = RSP-03
OBJECT_ID      = 1998-067XL
CENTER_NAME    = EARTH
REF_FRAME      = TEME
TIME_SYSTEM    = UTC
MEAN_ELEMENT_THEORY = SGP/SGP4

EPOCH          = 2025-11-01T12:09:52.456032
MEAN_MOTION    = 15.58632481
ECCENTRICITY   = .00056556
INCLINATION    = 51.6322
RA_OF_ASC_NODE = 344.9555
ARG_OF_PERICENTER = 43.0184
MEAN_ANOMALY   = 317.1250

EPHEMERIS_TYPE = 0
CLASSIFICATION_TYPE = U
NORAD_CAT_ID   = 65732
ELEMENT_SET_NO = 999
REV_AT_EPOCH   = 671
BSTAR          = .95658359E-3
MEAN_MOTION_DOT = .75093E-3
MEAN_MOTION_DDOT = 0

CCSDS_OMM_VERS = 2.0
CREATION_DATE  = 
ORIGINATOR     = 

OBJECT_NAME    = GHS-01
OBJECT_ID      = 1998-067XM
CENTER_NAME    = EARTH
REF_FRAME      = TEME
TIME_SYSTEM    = UTC
MEAN_ELEMENT_THEORY = SGP/SGP4

EPOCH          = 2025-11-01T11:40:05.062944
MEAN_MOTION    = 15.60348811
ECCENTRICITY   = .00040439
INCLINATION    = 51.6330
RA_OF_ASC_NODE = 344.8180
ARG_OF_PERICENTER = 60.8132
MEAN_ANOMALY   = 299.3265

EPHEMERIS_TYPE = 0
CLASSIFICATION_TYPE = U
NORAD_CAT_ID   = 65733
ELEMENT_SET_NO = 999
REV_AT_EPOCH   = 671
BSTAR          = .11464774E-2
MEAN_MOTION_DOT = .9643E-3
MEAN_MOTION_DDOT = 0

CCSDS_OMM_VERS = 2.0
CREATION_DATE  = 
ORIGINATOR     = 

OBJECT_NAME    = YOTSUBA-KULOVER
OBJECT_ID      = 1998-067XN
CENTER_NAME    = EARTH
REF_FRAME      = TEME
TIME_SYSTEM    = UTC
MEAN_ELEMENT_THEORY = SGP/SGP4

EPOCH          = 2025-11-01T13:13:43.920192
MEAN_MOTION    = 15.53246603
ECCENTRICITY   = .00026134
INCLINATION    = 51.6329
RA_OF_ASC_NODE = 345.9990
ARG_OF_PERICENTER = 350.0726
MEAN_ANOMALY   = 10.0213

EPHEMERIS_TYPE = 0
CLASSIFICATION_TYPE = U
NORAD_CAT_ID   = 65941
ELEMENT_SET_NO = 999
REV_AT_EPOCH   = 344
BSTAR          = .76336489E-3
MEAN_MOTION_DOT = .48767E-3
MEAN_MOTION_DDOT = 0

CCSDS_OMM_VERS = 2.0
CREATION_DATE  = 
ORIGINATOR     = 

OBJECT_NAME    = BOTAN
OBJECT_ID      = 1998-067XP
CENTER_NAME    = EARTH
REF_FRAME      = TEME
TIME_SYSTEM    = UTC
MEAN_ELEMENT_THEORY = SGP/SGP4

EPOCH          = 2025-11-01T13:05:08.144160
MEAN_MOTION    = 15.54095782
ECCENTRICITY   = .00046258
INCLINATION    = 51.6331
RA_OF_ASC_NODE = 345.9591
ARG_OF_PERICENTER = 5.6465
MEAN_ANOMALY   = 354.4577

EPHEMERIS_TYPE = 0
CLASSIFICATION_TYPE = U
NORAD_CAT_ID   = 65942
ELEMENT_SET_NO = 999
REV_AT_EPOCH   = 344
BSTAR          = .10070176E-2
MEAN_MOTION_DOT = .66684E-3
MEAN_MOTION_DDOT = 0

CCSDS_OMM_VERS = 2.0
CREATION_DATE  = 
ORIGINATOR     = 

OBJECT_NAME    = E-KAGAKU-1
OBJECT_ID      = 1998-067XQ
CENTER_NAME    = EARTH
REF_FRAME      = TEME
TIME_SYSTEM    = UTC
MEAN_ELEMENT_THEORY = SGP/SGP4

EPOCH          = 2025-11-01T11:40:27.801696
MEAN_MOTION    = 15.53246328
ECCENTRICITY   = .00044075
INCLINATION    = 51.6344
RA_OF_ASC_NODE = 346.3156
ARG_OF_PERICENTER = 355.0444
MEAN_ANOMALY   = 5.0502

EPHEMERIS_TYPE = 0
CLASSIFICATION_TYPE = U
NORAD_CAT_ID   = 65943
ELEMENT_SET_NO = 999
REV_AT_EPOCH   = 343
BSTAR          = .76576249E-3
MEAN_MOTION_DOT = .48933E-3
MEAN_MOTION_DDOT = 0

CCSDS_OMM_VERS = 2.0
CREATION_DATE  = 
ORIGINATOR     = 

OBJECT_NAME    = HRC MONOBLOCK CAMERA
OBJECT_ID      = 1998-067XR
CENTER_NAME    = EARTH
REF_FRAME      = TEME
TIME_SYSTEM    = UTC
MEAN_ELEMENT_THEORY = SGP/SGP4

EPOCH          = 2025-11-01T12:20:34.765728
MEAN_MOTION    = 15.50628172
ECCENTRICITY   = .00044504
INCLINATION    = 51.6330
RA_OF_ASC_NODE = 346.5013
ARG_OF_PERICENTER = 14.1226
MEAN_ANOMALY   = 345.9887

EPHEMERIS_TYPE = 0
CLASSIFICATION_TYPE = U
NORAD_CAT_ID   = 66052
ELEMENT_SET_NO = 999
REV_AT_EPOCH   = 243
BSTAR          = .53318297E-3
MEAN_MOTION_DOT = .30784E-3
MEAN_MOTION_DDOT = 0

CCSDS_OMM_VERS = 2.0
CREATION_DATE  = 
ORIGINATOR     = 

OBJECT_NAME    = HTV-X1
OBJECT_ID      = 2025-241A
CENTER_NAME    = EARTH
REF_FRAME      = TEME
TIME_SYSTEM    = UTC
MEAN_ELEMENT_THEORY = SGP/SGP4

EPOCH          = 2025-11-01T12:29:31.512768
MEAN_MOTION    = 15.49679820
ECCENTRICITY   = .00049334
INCLINATION    = 51.6344
RA_OF_ASC_NODE = 346.5423
ARG_OF_PERICENTER = 5.4437
MEAN_ANOMALY   = 354.6605

EPHEMERIS_TYPE = 0
CLASSIFICATION_TYPE = U
NORAD_CAT_ID   = 66174
ELEMENT_SET_NO = 999
REV_AT_EPOCH   = 98
BSTAR          = .21987154E-3
MEAN_MOTION_DOT = .11974E-3
MEAN_MOTION_DDOT = 0

